{"type":"FeatureCollection","features":[{"type":"Feature","properties":{"name":"Bagonbanua MPA"},"geometry":{"type":"Polygon","coordinates":[[[125.66191481344458,11.056652084078786],[125.66236173070008,11.056770020576764],[125.66261001806424,11.056900371442952],[125.66287692698073,11.056993479204513],[125.66325556521107,11.057074172597869],[125.66378317585995,11.05712693366276],[125.66429874036822,11.057254495438169],[125.6644535517432,11.057247973752787],[125.66469189075016,11.057275176997027],[125.66488446572217,11.05730818984937],[125.66511005354651,11.057335700559657],[125.66540718366909,11.057398079866745],[125.66558946643426,11.057427982091808],[125.6657430942408,11.05735815127063],[125.66595413850033,11.057184350115714],[125.66617837302609,11.057083483374022],[125.6663384065143,11.05698446592268],[125.66650897291807,11.05682490380302],[125.66656399433862,11.056720363103931],[125.66656399433862,11.056593813836617],[125.66684699509833,11.056432345137408],[125.66677546725158,11.056261778733635],[125.66669293512072,11.055970165204602],[125.6666819308366,11.05554099812414],[125.66664341584219,11.055359427436253],[125.66664341584219,11.055298903873624],[125.66668193083659,11.055155848180137],[125.6667699651095,11.055018294628706],[125.66676855502541,11.054687255026863],[125.66678506145159,11.054544199333375],[125.6667575507413,11.0542966029408],[125.66666951646839,11.054225075094056],[125.66654846934313,11.054175555815542],[125.66646593721227,11.054115032252913],[125.6663834050814,11.054043504406168],[125.66637157163139,11.053759536286243],[125.66633195108243,11.053322822289859],[125.66631544465626,11.053108238749628],[125.66621090395718,11.052871646641167],[125.6661173675422,11.052684573811222],[125.66597431184871,11.052530513833622],[125.66585326472345,11.052464488128935],[125.66568132379284,11.05231960869013],[125.6652108282039,11.052331883942282],[125.66494391928741,11.05238774859922],[125.66451562358422,11.05246223480847],[125.6641928500108,11.052378437823057],[125.66347281665473,11.052654657515697],[125.66233069477954,11.05334365495126],[125.66160445423934,11.053591942315428],[125.66125064474541,11.053759536286242],[125.66092166398789,11.053939544625262],[125.66054923294166,11.055013387475283],[125.66069820536016,11.055658934622116],[125.66073544846476,11.056146198574286],[125.66112029387922,11.056431729043078],[125.66191481344458,11.056652084078786]]]}}]}